ONEWEB-0645             
1 55809U 23029P   25097.82538267  .00001992  00000+0  49439-2 0  9998
2 55809  87.9254  31.5209 0002235  70.0976 290.0397 13.19716402101483
ONEWEB-0646             
1 55810U 23029Q   25097.77954699  .00000071  00000+0  14559-3 0  9998
2 55810  87.9252  31.5246 0001739  72.1203 288.0119 13.19728258101467
ONEWEB-0648             
1 55811U 23029R   25097.79476934 -.00000456  00000+0 -12640-2 0  9999
2 55811  87.9097  16.2957 0002212  51.5411 308.5917 13.14503279102197
ONEWEB-0649             
1 55812U 23029S   25097.81823856  .00000081  00000+0  16883-3 0  9998
2 55812  87.9251  31.5075 0002031  64.4510 295.6832 13.19723415101500
ONEWEB-0650             
1 55813U 23029T   25097.81350324  .00000070  00000+0  14164-3 0  9992
2 55813  87.9252  31.5164 0001849  73.1016 287.0319 13.19723793101475
ONEWEB-0652             
1 55814U 23029U   25097.77574298  .00000150  00000+0  36904-3 0  9991
2 55814  87.9096  16.3101 0001843  82.7804 277.3535 13.14503268102166
ONEWEB-0653             
1 55815U 23029V   25097.75987999  .00000297  00000+0  76792-3 0  9997
2 55815  87.9098  16.3007 0002057  81.1794 278.9568 13.14506235102196
ONEWEB-0654             
1 55816U 23029W   25097.75512988  .00000267  00000+0  68547-3 0  9996
2 55816  87.9092  16.3039 0002081  91.1527 268.9841 13.14505106102210
